[{"OBJECT_NAME":"SPOT 6","OBJECT_ID":"2012-047A","EPOCH":"2026-03-09T22:20:19.799808","MEAN_MOTION":14.58541829,"ECCENTRICITY":0.00015044,"INCLINATION":98.2215,"RA_OF_ASC_NODE":137.359,"ARG_OF_PERICENTER":93.8151,"MEAN_ANOMALY":266.322,"EPHEMERIS_TYPE":0,"CLASSIFICATION_TYPE":"U","NORAD_CAT_ID":38755,"ELEMENT_SET_NO":999,"REV_AT_EPOCH":71858,"BSTAR":8.0762181e-5,"MEAN_MOTION_DOT":3.29e-6,"MEAN_MOTION_DDOT":0},{"OBJECT_NAME":"UNKNOWN","OBJECT_ID":"","EPOCH":"2026-03-09T06:46:15.504960","MEAN_MOTION":14.3604467,"ECCENTRICITY":0.0131941,"INCLINATION":73.2821,"RA_OF_ASC_NODE":15.628,"ARG_OF_PERICENTER":141.5737,"MEAN_ANOMALY":8.6286,"EPHEMERIS_TYPE":0,"CLASSIFICATION_TYPE":"U","NORAD_CAT_ID":82524,"ELEMENT_SET_NO":999,"REV_AT_EPOCH":58945,"BSTAR":0.0010101,"MEAN_MOTION_DOT":3.213e-5,"MEAN_MOTION_DDOT":0}]
